{
  "links" : {
    "next" : "https://api.nasa.gov/neo/rest/v1/feed?start_date=1997-07-16&end_date=1997-07-16&detailed=true&api_key=t0TVs3DtDT2H8Oy2Zy8m2eVrNsAVKAexjcZXUckd",
    "prev" : "https://api.nasa.gov/neo/rest/v1/feed?start_date=1997-07-14&end_date=1997-07-14&detailed=true&api_key=t0TVs3DtDT2H8Oy2Zy8m2eVrNsAVKAexjcZXUckd",
    "self" : "https://api.nasa.gov/neo/rest/v1/feed?start_date=1997-07-15&end_date=1997-07-15&detailed=true&api_key=t0TVs3DtDT2H8Oy2Zy8m2eVrNsAVKAexjcZXUckd"
  },
  "element_count" : 4,
  "near_earth_objects" : {
    "1997-07-15" : [ {
      "links" : {
        "self" : "https://api.nasa.gov/neo/rest/v1/neo/3694778?api_key=t0TVs3DtDT2H8Oy2Zy8m2eVrNsAVKAexjcZXUckd"
      },
      "neo_reference_id" : "3694778",
      "name" : "(2014 UE115)",
      "nasa_jpl_url" : "http://ssd.jpl.nasa.gov/sbdb.cgi?sstr=3694778",
      "absolute_magnitude_h" : 22.4,
      "estimated_diameter" : {
        "kilometers" : {
          "estimated_diameter_min" : 0.0880146521,
          "estimated_diameter_max" : 0.1968067451
        },
        "meters" : {
          "estimated_diameter_min" : 88.0146520901,
          "estimated_diameter_max" : 196.8067450894
        },
        "miles" : {
          "estimated_diameter_min" : 0.0546897524,
          "estimated_diameter_max" : 0.122290004
        },
        "feet" : {
          "estimated_diameter_min" : 288.7619911632,
          "estimated_diameter_max" : 645.6914415591
        }
      },
      "is_potentially_hazardous_asteroid" : false,
      "close_approach_data" : [ {
        "close_approach_date" : "1997-07-15",
        "epoch_date_close_approach" : 868950000000,
        "relative_velocity" : {
          "kilometers_per_second" : "10.5145587973",
          "kilometers_per_hour" : "37852.4116703736",
          "miles_per_hour" : "23520.0165737385"
        },
        "miss_distance" : {
          "astronomical" : "0.2864431226",
          "lunar" : "111.4263687134",
          "kilometers" : "42851280",
          "miles" : "26626552"
        },
        "orbiting_body" : "Earth"
      } ],
      "orbital_data" : {
        "orbit_id" : "12",
        "orbit_determination_date" : "2017-04-06 08:37:50",
        "orbit_uncertainty" : "6",
        "minimum_orbit_intersection" : ".165473",
        "jupiter_tisserand_invariant" : "3.919",
        "epoch_osculation" : "2458000.5",
        "eccentricity" : ".4205985739811467",
        "semi_major_axis" : "1.809852510843889",
        "inclination" : "12.72780324026955",
        "ascending_node_longitude" : "41.19341278503892",
        "orbital_period" : "889.3305346299258",
        "perihelion_distance" : "1.048631125666752",
        "perihelion_argument" : "292.1746073823414",
        "aphelion_distance" : "2.571073896021026",
        "perihelion_time" : "2457789.450870882148",
        "mean_anomaly" : "85.43245005530245",
        "mean_motion" : ".4047988750884458",
        "equinox" : "J2000"
      }
    }, {
      "links" : {
        "self" : "https://api.nasa.gov/neo/rest/v1/neo/2015817?api_key=t0TVs3DtDT2H8Oy2Zy8m2eVrNsAVKAexjcZXUckd"
      },
      "neo_reference_id" : "2015817",
      "name" : "15817 Lucianotesi (1994 QC)",
      "nasa_jpl_url" : "http://ssd.jpl.nasa.gov/sbdb.cgi?sstr=2015817",
      "absolute_magnitude_h" : 18.5,
      "estimated_diameter" : {
        "kilometers" : {
          "estimated_diameter_min" : 0.5303407233,
          "estimated_diameter_max" : 1.1858779086
        },
        "meters" : {
          "estimated_diameter_min" : 530.3407233187,
          "estimated_diameter_max" : 1185.8779085771
        },
        "miles" : {
          "estimated_diameter_min" : 0.3295383456,
          "estimated_diameter_max" : 0.7368701419
        },
        "feet" : {
          "estimated_diameter_min" : 1739.963058693,
          "estimated_diameter_max" : 3890.675677576
        }
      },
      "is_potentially_hazardous_asteroid" : false,
      "close_approach_data" : [ {
        "close_approach_date" : "1997-07-15",
        "epoch_date_close_approach" : 868950000000,
        "relative_velocity" : {
          "kilometers_per_second" : "6.3150027298",
          "kilometers_per_hour" : "22734.0098274342",
          "miles_per_hour" : "14126.0296063854"
        },
        "miss_distance" : {
          "astronomical" : "0.2943184729",
          "lunar" : "114.4898834229",
          "kilometers" : "44029416",
          "miles" : "27358610"
        },
        "orbiting_body" : "Earth"
      } ],
      "orbital_data" : {
        "orbit_id" : "67",
        "orbit_determination_date" : "2017-09-27 06:51:28",
        "orbit_uncertainty" : "0",
        "minimum_orbit_intersection" : ".248648",
        "jupiter_tisserand_invariant" : "4.901",
        "epoch_osculation" : "2458000.5",
        "eccentricity" : ".1181427387023031",
        "semi_major_axis" : "1.324690522281265",
        "inclination" : "13.87273171420545",
        "ascending_node_longitude" : "162.5105260457456",
        "orbital_period" : "556.8908349192591",
        "perihelion_distance" : "1.168187956045972",
        "perihelion_argument" : "94.29095660343901",
        "aphelion_distance" : "1.481193088516559",
        "perihelion_time" : "2457847.206167768374",
        "mean_anomaly" : "99.09622522587669",
        "mean_motion" : ".646446264557747",
        "equinox" : "J2000"
      }
    }, {
      "links" : {
        "self" : "https://api.nasa.gov/neo/rest/v1/neo/2352102?api_key=t0TVs3DtDT2H8Oy2Zy8m2eVrNsAVKAexjcZXUckd"
      },
      "neo_reference_id" : "2352102",
      "name" : "352102 (2007 AG12)",
      "nasa_jpl_url" : "http://ssd.jpl.nasa.gov/sbdb.cgi?sstr=2352102",
      "absolute_magnitude_h" : 19.5,
      "estimated_diameter" : {
        "kilometers" : {
          "estimated_diameter_min" : 0.3346223745,
          "estimated_diameter_max" : 0.7482383761
        },
        "meters" : {
          "estimated_diameter_min" : 334.6223744549,
          "estimated_diameter_max" : 748.2383760735
        },
        "miles" : {
          "estimated_diameter_min" : 0.2079246394,
          "estimated_diameter_max" : 0.464933628
        },
        "feet" : {
          "estimated_diameter_min" : 1097.8424710066,
          "estimated_diameter_max" : 2454.8503937571
        }
      },
      "is_potentially_hazardous_asteroid" : true,
      "close_approach_data" : [ {
        "close_approach_date" : "1997-07-15",
        "epoch_date_close_approach" : 868950000000,
        "relative_velocity" : {
          "kilometers_per_second" : "32.531890459",
          "kilometers_per_hour" : "117114.8056523964",
          "miles_per_hour" : "72770.5857677349"
        },
        "miss_distance" : {
          "astronomical" : "0.227914218",
          "lunar" : "88.6586303711",
          "kilometers" : "34095480",
          "miles" : "21185950"
        },
        "orbiting_body" : "Earth"
      } ],
      "orbital_data" : {
        "orbit_id" : "26",
        "orbit_determination_date" : "2017-04-06 09:52:28",
        "orbit_uncertainty" : "0",
        "minimum_orbit_intersection" : ".0473248",
        "jupiter_tisserand_invariant" : "3.200",
        "epoch_osculation" : "2458000.5",
        "eccentricity" : ".6561335627624596",
        "semi_major_axis" : "2.090396861141288",
        "inclination" : "41.97524844578042",
        "ascending_node_longitude" : "305.4694711652137",
        "orbital_period" : "1103.930020430749",
        "perihelion_distance" : ".7188173210531923",
        "perihelion_argument" : "68.18047519978728",
        "aphelion_distance" : "3.461976401229384",
        "perihelion_time" : "2458408.414591542579",
        "mean_anomaly" : "226.9759402882908",
        "mean_motion" : ".3261076276008232",
        "equinox" : "J2000"
      }
    }, {
      "links" : {
        "self" : "https://api.nasa.gov/neo/rest/v1/neo/3515377?api_key=t0TVs3DtDT2H8Oy2Zy8m2eVrNsAVKAexjcZXUckd"
      },
      "neo_reference_id" : "3515377",
      "name" : "(2010 GU21)",
      "nasa_jpl_url" : "http://ssd.jpl.nasa.gov/sbdb.cgi?sstr=3515377",
      "absolute_magnitude_h" : 21.1,
      "estimated_diameter" : {
        "kilometers" : {
          "estimated_diameter_min" : 0.160160338,
          "estimated_diameter_max" : 0.358129403
        },
        "meters" : {
          "estimated_diameter_min" : 160.1603379786,
          "estimated_diameter_max" : 358.1294030194
        },
        "miles" : {
          "estimated_diameter_min" : 0.0995189894,
          "estimated_diameter_max" : 0.2225312253
        },
        "feet" : {
          "estimated_diameter_min" : 525.4604432536,
          "estimated_diameter_max" : 1174.9652706022
        }
      },
      "is_potentially_hazardous_asteroid" : true,
      "close_approach_data" : [ {
        "close_approach_date" : "1997-07-15",
        "epoch_date_close_approach" : 868950000000,
        "relative_velocity" : {
          "kilometers_per_second" : "10.4492549573",
          "kilometers_per_hour" : "37617.3178461569",
          "miles_per_hour" : "23373.9384139079"
        },
        "miss_distance" : {
          "astronomical" : "0.0469289902",
          "lunar" : "18.2553768158",
          "kilometers" : "7020477",
          "miles" : "4362322"
        },
        "orbiting_body" : "Earth"
      } ],
      "orbital_data" : {
        "orbit_id" : "49",
        "orbit_determination_date" : "2017-04-06 08:57:54",
        "orbit_uncertainty" : "2",
        "minimum_orbit_intersection" : ".0104914",
        "jupiter_tisserand_invariant" : "3.455",
        "epoch_osculation" : "2458000.5",
        "eccentricity" : ".5631917932432755",
        "semi_major_axis" : "2.180378367706063",
        "inclination" : "3.190130902757727",
        "ascending_node_longitude" : "57.21306985904683",
        "orbital_period" : "1175.969948815184",
        "perihelion_distance" : ".9524071648488392",
        "perihelion_argument" : "200.9676144278862",
        "aphelion_distance" : "3.408349570563286",
        "perihelion_time" : "2457699.622730930332",
        "mean_anomaly" : "92.10764014353515",
        "mean_motion" : ".3061302717494678",
        "equinox" : "J2000"
      }
    } ]
  }
}